[{"OBJECT_NAME":"STARLINK-2315","OBJECT_ID":"2021-018C","EPOCH":"2026-03-09T18:16:43.104864","MEAN_MOTION":15.06403769,"ECCENTRICITY":0.00013144,"INCLINATION":53.0561,"RA_OF_ASC_NODE":231.2942,"ARG_OF_PERICENTER":123.9087,"MEAN_ANOMALY":236.2027,"EPHEMERIS_TYPE":0,"CLASSIFICATION_TYPE":"U","NORAD_CAT_ID":47789,"ELEMENT_SET_NO":999,"REV_AT_EPOCH":27689,"BSTAR":5.2453172e-5,"MEAN_MOTION_DOT":5.0e-6,"MEAN_MOTION_DDOT":0},{"OBJECT_NAME":"THOR ABLESTAR DEB","OBJECT_ID":"1961-015G","EPOCH":"2026-03-09T12:36:21.518784","MEAN_MOTION":14.9924172,"ECCENTRICITY":0.00458994,"INCLINATION":66.74,"RA_OF_ASC_NODE":114.2823,"ARG_OF_PERICENTER":282.1843,"MEAN_ANOMALY":77.4151,"EPHEMERIS_TYPE":0,"CLASSIFICATION_TYPE":"U","NORAD_CAT_ID":122,"ELEMENT_SET_NO":999,"REV_AT_EPOCH":37932,"BSTAR":0.00092278357,"MEAN_MOTION_DOT":0.00011411,"MEAN_MOTION_DDOT":0}]
